H1 CPF  1  HTS 2022  1 14 12  5141 larets           NONE
H2  0304206 5557    27944 2022 01 14  0  0  0 2022 01 19  0  0  0   180 1 1  0 0 0
H5  0.0560 
H9 
10 0 59593  72360.00000  0    -955790.541    1531383.757   -6839621.293
10 0 59593  72540.00000  0    -835623.381    2823228.187   -6430171.972
10 0 59593  72720.00000  0    -652777.210    4009217.387   -5787013.575
10 0 59593  72900.00000  0    -417171.681    5044776.935   -4933144.508
10 0 59593  73080.00000  0    -141754.244    5890877.407   -3899287.496
10 0 59593  73260.00000  0     158115.305    6515565.564   -2722861.354
10 0 59593  73440.00000  0     465415.162    6895257.807   -1446679.199
10 0 59593  73620.00000  0     762315.078    7015729.322    -117406.266
10 0 59593  73800.00000  0    1031093.346    6872733.594    1216171.468
10 0 59593  73980.00000  0    1255067.398    6472204.253    2504993.088
10 0 59593  74160.00000  0    1419482.414    5830024.355    3701593.520
10 0 59593  74340.00000  0    1512314.542    4971375.645    4761915.086
10 0 59593  74520.00000  0    1524946.524    3929694.052    5646979.247
10 0 59593  74700.00000  0    1452673.407    2745288.080    6324332.783
10 0 59593  74880.00000  0    1295022.134    1463712.256    6769220.453
10 0 59593  75060.00000  0    1055870.302     133960.880    6965460.400
10 0 59593  75240.00000  0     743361.038   -1193437.146    6905995.999
10 0 59593  75420.00000  0     369617.114   -2468354.746    6593128.546
10 0 59593  75600.00000  0     -49737.576   -3642975.146    6038419.845
10 0 59593  75780.00000  0    -496228.754   -4673599.749    5262263.426
10 0 59593  75960.00000  0    -949327.143   -5522290.140    4293151.209
10 0 59593  76140.00000  0   -1387366.279   -6158305.589    3166650.384
10 0 59593  76320.00000  0   -1788543.936   -6559262.723    1924098.226
10 0 59593  76500.00000  0   -2131958.615   -6711959.778     611069.788
10 0 59593  76680.00000  0   -2398628.994   -6612825.123    -724328.758
10 0 59593  76860.00000  0   -2572439.071   -6267964.699   -2033265.251
10 0 59593  77040.00000  0   -2640964.997   -5692810.991   -3268003.123
10 0 59593  77220.00000  0   -2596142.327   -4911394.702   -4383661.477
10 0 59593  77400.00000  0   -2434739.734   -3955282.722   -5339834.580
10 0 59593  77580.00000  0   -2158623.033   -2862251.870   -6102009.799
10 0 59593  77760.00000  0   -1774804.359   -1674766.384   -6642748.896
10 0 59593  77940.00000  0   -1295275.191    -438323.136   -6942603.486
10 0 59593  78120.00000  0    -736636.168     800267.437   -6990748.958
10 0 59593  78300.00000  0    -119536.077    1994607.031   -6785339.829
10 0 59593  78480.00000  0     532065.092    3100398.233   -6333586.897
10 0 59593  78660.00000  0    1191794.035    4077057.760   -5651553.280
10 0 59593  78840.00000  0    1831900.401    4889205.506   -4763656.317
10 0 59593  79020.00000  0    2424397.532    5507980.791   -3701879.289
10 0 59593  79200.00000  0    2942268.267    5912133.603   -2504692.965
10 0 59593  79380.00000  0    3360685.327    6088835.994   -1215709.184
10 0 59593  79560.00000  0    3658187.680    6034165.073     117900.869
10 0 59593  79740.00000  0    3817744.850    5753216.820    1447165.196
10 0 59593  79920.00000  0    3827651.042    5259835.993    2723164.921
10 0 59593  80100.00000  0    3682198.462    4575974.756    3898902.566
10 0 59593  80280.00000  0    3382088.966    3730702.969    4931095.913
10 0 59593  80460.00000  0    2934560.960    2758932.543    5781813.320
10 0 59593  80640.00000  0    2353223.507    1699920.837    6419876.495
10 0 59593  80820.00000  0    1657624.101     595636.435    6821983.386
10 0 59593  81000.00000  0     872561.510    -510937.911    6973525.223
10 0 59593  81180.00000  0      27176.651   -1577494.151    6869085.672
10 0 59593  81360.00000  0    -846147.254   -2564029.198    6512613.328
10 0 59593  81540.00000  0   -1713035.973   -3434354.151    5917260.359
10 0 59593  81720.00000  0   -2538476.667   -4157429.613    5104903.495
10 0 59593  81900.00000  0   -3288239.539   -4708493.291    4105364.908
10 0 59593  82080.00000  0   -3930314.912   -5069934.979    2955330.487
10 0 59593  82260.00000  0   -4436288.678   -5231875.952    1696999.248
10 0 59593  82440.00000  0   -4782597.625   -5192429.647     376516.697
10 0 59593  82620.00000  0   -4951605.047   -4957627.409    -957751.457
10 0 59593  82800.00000  0   -4932439.212   -4541012.931   -2257033.296
10 0 59593  82980.00000  0   -4721547.520   -3962924.182   -3473971.400
10 0 59593  83160.00000  0   -4322941.552   -3249507.240   -4564360.897
10 0 59593  83340.00000  0   -3748132.586   -2431524.521   -5488735.871
10 0 59593  83520.00000  0   -3015768.618   -1543018.756   -6213750.168
10 0 59593  83700.00000  0   -2150997.671    -619897.571   -6713313.001
10 0 59593  83880.00000  0   -1184586.693     301501.188   -6969454.614
10 0 59593  84060.00000  0    -151835.500    1185806.070   -6972909.173
10 0 59593  84240.00000  0     908677.516    1999930.064   -6723422.486
10 0 59593  84420.00000  0    1956491.610    2714277.766   -6229783.839
10 0 59593  84600.00000  0    2950771.185    3303811.545   -5509569.184
10 0 59593  84780.00000  0    3851874.392    3748939.546   -4588590.157
10 0 59593  84960.00000  0    4622935.998    4036198.763   -3500055.835
10 0 59593  85140.00000  0    5231407.525    4158701.679   -2283446.147
10 0 59593  85320.00000  0    5650477.838    4116316.733    -983118.556
10 0 59593  85500.00000  0    5860301.397    3915566.322     353308.407
10 0 59593  85680.00000  0    5848964.110    3569238.603    1676733.106
10 0 59593  85860.00000  0    5613127.944    3095724.161    2938435.562
10 0 59593  86040.00000  0    5158308.692    2518110.748    4091941.783
10 0 59593  86220.00000  0    4498767.698    1863082.856    5094796.413
10 0 59594      0.00000  0    3657031.218    1159689.200    5910157.322
10 0 59594    180.00000  0    2663063.154     438044.196    6508157.435
10 0 59594    360.00000  0    1553136.152    -271972.420    6866972.524
10 0 59594    540.00000  0     368464.643    -941956.333    6973585.135
10 0 59594    720.00000  0    -846359.123   -1546119.041    6824226.949
10 0 59594    900.00000  0   -2045062.957   -2062283.416    6424486.857
10 0 59594   1080.00000  0   -3181463.024   -2472698.065    5789093.703
10 0 59594   1260.00000  0   -4211254.056   -2764650.504    4941392.977
10 0 59594   1440.00000  0   -5093766.072   -2930862.437    3912505.873
10 0 59594   1620.00000  0   -5793601.907   -2969643.632    2740193.603
10 0 59594   1800.00000  0   -6282091.149   -2884802.110    1467471.226
10 0 59594   1980.00000  0   -6538495.825   -2685317.744     141007.992
10 0 59594   2160.00000  0   -6550898.176   -2384787.442   -1190623.076
10 0 59594   2340.00000  0   -6316725.730   -2000673.189   -2478767.731
10 0 59594   2520.00000  0   -5842883.694   -1553394.830   -3676500.489
10 0 59594   2700.00000  0   -5145501.929   -1065319.297   -4740340.013
10 0 59594   2880.00000  0   -4249319.267    -559698.719   -5631805.000
10 0 59594   3060.00000  0   -3186741.700     -59609.268   -6318755.455
10 0 59594   3240.00000  0   -1996627.151     413059.205   -6776478.643
10 0 59594   3420.00000  0    -722855.419     838519.817   -6988503.696
10 0 59594   3600.00000  0     587264.594    1199882.402   -6947137.811
10 0 59594   3780.00000  0    1884700.728    1483802.068   -6653726.546
10 0 59594   3960.00000  0    3120484.036    1680965.729   -6118637.072
10 0 59594   4140.00000  0    4247524.023    1786401.321   -5360945.754
10 0 59594   4320.00000  0    5222394.445    1799597.657   -4407837.130
10 0 59594   4500.00000  0    6007038.106    1724431.351   -3293712.994
10 0 59594   4680.00000  0    6570316.308    1568896.749   -2059017.968
10 0 59594   4860.00000  0    6889332.633    1344646.683    -748807.458
10 0 59594   5040.00000  0    6950451.759    1066358.757     588904.160
10 0 59594   5220.00000  0    6749944.380     750956.065    1904944.871
10 0 59594   5400.00000  0    6294221.930     416721.897    3150855.635
10 0 59594   5580.00000  0    5599633.642      82352.786    4280746.090
10 0 59594   5760.00000  0    4691837.331    -233994.301    5253039.163
10 0 59594   5940.00000  0    3604785.265    -515609.810    6032030.508
10 0 59594   6120.00000  0    2379376.617    -748049.253    6589198.525
10 0 59594   6300.00000  0    1061853.947    -919819.680    6904224.115
10 0 59594   6480.00000  0    -297990.733   -1022910.496    6965699.982
10 0 59594   6660.00000  0   -1648728.949   -1053146.652    6771509.059
10 0 59594   6840.00000  0   -2939252.836   -1010352.063    6328874.774
10 0 59594   7020.00000  0   -4120715.115    -898317.376    5654093.328
10 0 59594   7200.00000  0   -5148399.022    -724578.011    4771952.582
10 0 59594   7380.00000  0   -5983447.393    -500011.364    3714837.061
10 0 59594   7560.00000  0   -6594373.338    -238267.687    2521544.963
10 0 59594   7740.00000  0   -6958291.797      44939.972    1235860.167
10 0 59594   7920.00000  0   -7061814.878     332652.600     -95079.904
10 0 59594   8100.00000  0   -6901555.835     607546.174   -1422554.233
10 0 59594   8280.00000  0   -6484215.760     852831.977   -2698082.402
10 0 59594   8460.00000  0   -5826261.051    1053128.460   -3875221.491
10 0 59594   8640.00000  0   -4953206.297    1195261.773   -4911265.143
10 0 59594   8820.00000  0   -3898549.045    1268953.401   -5768763.560
10 0 59594   9000.00000  0   -2702426.192    1267364.661   -6416817.764
10 0 59594   9180.00000  0   -1410059.127    1187476.805   -6832119.185
10 0 59594   9360.00000  0     -70049.703    1030297.863   -6999716.038
10 0 59594   9540.00000  0    1267407.824     800889.189   -6913499.546
10 0 59594   9720.00000  0    2552353.069     508211.708   -6576419.657
10 0 59594   9900.00000  0    3736883.587     164793.066   -6000412.955
10 0 59594  10080.00000  0    4776916.954    -213775.694   -5206038.438
10 0 59594  10260.00000  0    5633840.683    -609501.271   -4221826.826
99
